STARLINK-4621           
1 53676U 22105AE  26198.08743184 -.00000131  00000+0 -51464-5 0  9999
2 53676  97.2839  75.5290 0001652  92.3382 267.8035 15.05659141212706
STARLINK-4579           
1 53677U 22105AF  26198.61491106 -.00001466  00000+0 -97701-4 0  9998
2 53677  97.2844  77.1169 0002300  89.7901 270.3590 15.05663354212856
STARLINK-4632           
1 53679U 22105AH  26198.64816036  .00000170  00000+0  15709-4 0  9993
2 53679  97.2843  77.2175 0002187  88.4907 271.6571 15.05661785212860
STARLINK-4630           
1 53680U 22105AJ  26198.41276538  .00000471  00000+0  36526-4 0  9991
2 53680  97.2844  76.9060 0002079  85.7128 274.4337 15.05655669212828
STARLINK-4424           
1 53681U 22105AK  26198.91668981  .00472154  00000+0  18618-2 0  9995
2 53681  97.5996  85.3824 0000921  93.9001 140.8495 15.85669081  5841
STARLINK-4438           
1 53682U 22105AL  26198.63152328 -.00000094  00000+0 -26104-5 0  9992
2 53682  97.2837  77.0610 0002161  74.7769 285.3698 15.05655217212859
STARLINK-4625           
1 53683U 22105AM  26198.41141772  .00004019  00000+0  28241-3 0  9991
2 53683  97.2850  75.8448 0001959  92.1446 268.0006 15.05637645212755
STARLINK-4624           
1 53684U 22105AN  26198.94584853  .00000298  00000+0  24538-4 0  9992
2 53684  97.2845  76.2994 0001935  83.5259 276.6189 15.05656361212800
STARLINK-4626           
1 53685U 22105AP  26198.12065559  .00000015  00000+0  49276-5 0  9994
2 53685  97.2854  75.4696 0001946  80.6422 279.5025 15.05655185212706
STARLINK-4467           
1 53686U 22105AQ  26198.64401596 -.00002344  00000+0 -15859-3 0  9994
2 53686  97.2841  75.9751 0003089  73.8409 286.3158 15.05647646212783
STARLINK-4569           
1 53687U 22105AR  26198.62875488  .00000062  00000+0  82186-5 0  9990
2 53687  97.2843  77.0633 0002407  72.5468 287.6023 15.05656001212850
STARLINK-4571           
1 53688U 22105AS  26198.62740580 -.00000089  00000+0 -22454-5 0  9998
2 53688  97.2839  75.9859 0002307  76.6808 283.4677 15.05655334212784
STARLINK-4570           
1 53690U 22105AU  26198.08468117 -.00001601  00000+0 -10709-3 0  9993
2 53690  97.2830  75.4946 0002519  96.4614 263.6901 15.05643014212704
STARLINK-4560           
1 53691U 22105AV  26198.93612698 -.00000082  00000+0 -17770-5 0  9992
2 53691  97.2854  77.3963 0003047  85.5391 274.6184 15.05655567212902
STARLINK-4572           
1 53692U 22105AW  26198.94169974  .00019195  00000+0  69334-3 0  9992
2 53692  97.6032  87.9884 0003470  99.6194 260.5438 15.28517982213406
STARLINK-4566           
1 53693U 22105AX  26198.09434257  .00000664  00000+0  49902-4 0  9999
2 53693  97.2838  76.6923 0001896  87.8110 272.3335 15.05664424212789
STARLINK-4725           
1 53700U 22107A   26198.94768525  .00000485  00000+0  48548-4 0  9998
2 53700  53.1616  18.7210 0001377  95.7038 264.4110 15.08843752214523
STARLINK-4711           
1 53701U 22107B   26198.94399882  .00000829  00000+0  70198-4 0  9993
2 53701  53.1616  18.6979 0001272  94.1764 265.9373 15.08833150214526
STARLINK-4724           
1 53702U 22107C   26198.91668981  .00076589  00000+0  33291-2 0  9997
2 53702  53.1598   3.6003 0001352 113.4944 236.4016 15.21615266  5551
STARLINK-4731           
1 53703U 22107D   26198.89249669 -.00000535  00000+0 -15524-4 0  9994
2 53703  53.1614  19.0874 0001147  83.9890 276.1232 15.08839762214514
STARLINK-4714           
1 53704U 22107E   26198.91897314  .00000710  00000+0  34626-4 0  9991
2 53704  53.1611  16.4516 0001158  80.6013 279.5120 15.31705208214391
STARLINK-4717           
1 53705U 22107F   26198.87047601 -.00000344  00000+0 -34898-5 0  9990
2 53705  53.1611  19.6578 0001323  90.2018 269.9125 15.08831821214507
STARLINK-4716           
1 53706U 22107G   26198.92197439 -.00000307  00000+0 -11822-5 0  9993
2 53706  53.1613  19.2702 0001415  81.7361 278.3791 15.08832743214511
STARLINK-4667           
1 53707U 22107H   26198.91668981  .00085514  00000+0  31291-2 0  9998
2 53707  53.1595   3.2921 0001854  69.7684  77.2709 15.27333708  5801
STARLINK-4694           
1 53708U 22107J   26198.91668981  .00076797  00000+0  35132-2 0  9990
2 53708  53.1601   3.6133 0001505  32.2670 312.9615 15.19862060  5705
STARLINK-4685           
1 53709U 22107K   26198.82024643  .00003107  00000+0  21312-3 0  9993
2 53709  53.1618  24.3607 0001449  99.3072 260.8084 15.08854594214127
STARLINK-4627           
1 53711U 22107M   26198.91668981  .00045558  00000+0  13526-2 0  9998
2 53711  53.1607  19.8405 0001539  81.4639  18.3676 15.34368851  5805
STARLINK-4683           
1 53712U 22107N   26198.93606161  .00124811  00000+0  74506-2 0  9998
2 53712  53.1610  23.6701 0001770 104.9471 255.1717 15.10149857214169
STARLINK-4686           
1 53715U 22107R   26198.91668981  .00037707  00000+0  10872-2 0  9990
2 53715  53.1597  26.1859 0000914  66.4580  53.4728 15.35379850  5793
STARLINK-4699           
1 53716U 22107S   26198.91668981  .00071422  00000+0  22661-2 0  9992
2 53716  53.1598  27.4821 0001116  58.5980 112.6469 15.32055934  5790
STARLINK-4695           
1 53718U 22107U   26198.91668981  .00032169  00000+0  11229-2 0  9997
2 53718  53.1590  28.3942 0001182  83.9672 335.1192 15.29337512  5797
STARLINK-4644           
1 53719U 22107V   26198.81336349 -.00000209  00000+0  49885-5 0  9990
2 53719  53.1612 359.3221 0001204  86.5543 273.5586 15.08831546214484
STARLINK-4642           
1 53720U 22107W   26198.90083871  .00000108  00000+0  14001-4 0  9999
2 53720  53.1615  25.6174 0001033  91.5543 268.5579 15.35395312214128
STARLINK-4707           
1 53721U 22107X   26198.91668981  .00110846  00000+0  35471-2 0  9995
2 53721  53.1598  27.5890 0002160  67.4795  52.0265 15.31553325  5603
STARLINK-4700           
1 53722U 22107Y   26198.91668981  .00108010  00000+0  35601-2 0  9991
2 53722  53.1598  27.5307 0001929  79.8180  68.7492 15.30615973  5753
STARLINK-4705           
1 53723U 22107Z   26198.91668981  .00065387  00000+0  24792-2 0  9990
2 53723  53.1592  27.7017 0001072  62.4637   2.1531 15.26289338  5799
STARLINK-4663           
1 53724U 22107AA  26198.91668981  .00114187  00000+0  33847-2 0  9995
2 53724  53.1613  26.5645 0000749 112.6855 173.5401 15.33976553  5708
STARLINK-4697           
1 53726U 22107AC  26198.91668981  .00115109  00000+0  35419-2 0  9999
2 53726  53.1596  27.4332 0001869  92.9592 107.2385 15.32785488  5603
STARLINK-4701           
1 53727U 22107AD  26198.91668981  .00067091  00000+0  22848-2 0  9998
2 53727  53.1590  27.6495 0001521  64.1882  25.8251 15.29802851  5795
STARLINK-4640           
1 53728U 22107AE  26198.94590068  .00001879  00000+0  66744-4 0  9999
2 53728  53.1612  25.1935 0001123  84.6689 275.4441 15.34393423214278
STARLINK-4651           
1 53729U 22107AF  26198.90543344  .00034967  00000+0  21199-2 0  9998
2 53729  53.1628  29.1547 0001611 147.6437 212.4654 15.10264651214240
STARLINK-4641           
1 53730U 22107AG  26198.90877671  .00000747  00000+0  32327-4 0  9999
2 53730  53.1610  25.6685 0001113  90.3112 269.8019 15.35399203214260
STARLINK-4636           
1 53731U 22107AH  26198.93549798  .00009520  00000+0  47879-3 0  9994
2 53731  53.2142  23.3067 0004521 162.8193 197.2957 15.17887037214331
STARLINK-4661           
1 53732U 22107AJ  26198.91668981  .00040933  00000+0  11786-2 0  9999
2 53732  53.1599  25.9232 0001133  85.6510 170.4199 15.35384825  5808
STARLINK-4574           
1 53733U 22107AK  26198.55644574  .00000721  00000+0  33256-4 0  9991
2 53733  53.1612  27.0322 0001273  91.9839 268.1309 15.33549798214245
STARLINK-4616           
1 53734U 22107AL  26198.91668981  .00109043  00000+0  38067-2 0  9990
2 53734  53.1600  28.1661 0001944  94.1998  90.9834 15.28744249  5791
STARLINK-4618           
1 53735U 22107AM  26198.83856511  .00002252  00000+0  75427-4 0  9997
2 53735  53.1601  35.9280 0000960  97.4413 262.6699 15.35410681214147
STARLINK-4652           
1 53736U 22107AN  26198.91668981  .00037460  00000+0  10801-2 0  9991
2 53736  53.1603  26.2303 0001529  60.8852  38.8933 15.35381766  5752
STARLINK-4662           
1 53738U 22107AQ  26198.77776863  .00002697  00000+0  88179-4 0  9995
2 53738  53.1608  36.2571 0001315  83.6287 276.4866 15.35403092214120
STARLINK-4607           
1 53740U 22107AS  26198.91668981  .00057834  00000+0  20288-2 0  9993
2 53740  53.1581  36.4540 0002192 113.3270 225.6973 15.28904190  5803
STARLINK-4637           
1 53742U 22107AU  26198.92750665  .00002100  00000+0  71067-4 0  9996
2 53742  53.1605  35.7722 0001020  82.9678 277.1441 15.35412320214304
STARLINK-4645           
1 53743U 22107AV  26198.83253664  .00001630  00000+0  59366-4 0  9999
2 53743  53.1611  35.8919 0001170  71.0031 289.1099 15.34404029214295
STARLINK-4670           
1 53744U 22107AW  26198.94952496 -.00001280  00000+0 -62357-4 0  9998
2 53744  53.1597  38.7050 0001439  97.9323 262.1832 15.08826795214268
STARLINK-4656           
1 53745U 22107AX  26198.83673922 -.00038407  00000+0 -11248-2 0  9993
2 53745  53.1619  35.9188 0001147  72.1257 287.9871 15.34582995214293
STARLINK-4589           
1 53746U 22107AY  26198.78428601  .00000828  00000+0  36501-4 0  9995
2 53746  53.1608  36.3026 0001201  89.8178 270.2962 15.33551842214287
STARLINK-4612           
1 53750U 22107BC  26198.82876975  .00001687  00000+0  59244-4 0  9999
2 53750  53.1603  35.8718 0000897  85.5997 274.5109 15.35402640214307
STARLINK-4718           
1 53773U 22111A   26198.91668981  .00023728  00000+0  11077-2 0  9995
2 53773  53.1588  58.6838 0001856 128.4153 226.0062 15.19733419  5791
STARLINK-4719           
1 53774U 22111B   26198.91668981  .00027643  00000+0  12876-2 0  9994
2 53774  53.1597  58.7203 0000978 135.5382 199.5600 15.19726420  5792
STARLINK-4722           
1 53775U 22111C   26198.93267253 -.00001427  00000+0 -37134-4 0  9994
2 53775  53.1601  46.7014 0001158  46.9612 313.1485 15.29351965213399
